start=new Date('2023-04-07T00:00:00.000Z').valueOf();
sats=[{"COUNTRY_CODE":"US","RA_OF_ASC_NODE":"320.1938","SITE":"AFETR","OBJECT_NAME":"STARLINK-1068","APOAPSIS":"547.628","INCLINATION":"53.0531","MEAN_MOTION_DOT":"0.00017444","SEMIMAJOR_AXIS":"6925.362","ARG_OF_PERICENTER":"42.2506","NORAD_CAT_ID":"44772","CLASSIFICATION_TYPE":"U","BSTAR":"0.00118720000000","PERIAPSIS":"546.827","OBJECT_TYPE":"PAYLOAD","GP_ID":"229639936","ELEMENT_SET_NO":"999","OBJECT_ID":"2019-074BM","TIME_SYSTEM":"UTC","REV_AT_EPOCH":"18752","EPOCH":"2023-04-06T21:11:16.190592","LAUNCH_DATE":"2019-11-11","EPHEMERIS_TYPE":"0","MEAN_MOTION_DDOT":"0.0000000000000","TLE_LINE2":"2 44772  53.0531 320.1938 0000578  42.2506 317.8527 15.06395529187529","ECCENTRICITY":"0.00005780","RCS_SIZE":"LARGE","PERIOD":"95.592","DECAY_DATE":null,"CENTER_NAME":"EARTH","MEAN_ANOMALY":"317.8527","MEAN_ELEMENT_THEORY":"SGP4","REF_FRAME":"TEME","FILE":"3882049","MEAN_MOTION":"15.06395529","TLE_LINE1":"1 44772U 19074BM  23096.88282628  .00017444  00000-0  11872-2 0  9990"},{"TIME_SYSTEM":"UTC","OBJECT_ID":"2020-001A","REV_AT_EPOCH":"17887","PERIAPSIS":"545.875","OBJECT_TYPE":"PAYLOAD","GP_ID":"229619018","ELEMENT_SET_NO":"999","ARG_OF_PERICENTER":"98.1553","NORAD_CAT_ID":"44914","CLASSIFICATION_TYPE":"U","BSTAR":"-0.00047222000000","COUNTRY_CODE":"US","RA_OF_ASC_NODE":"101.0048","OBJECT_NAME":"STARLINK-1073","SITE":"AFETR","APOAPSIS":"548.514","INCLINATION":"53.0550","MEAN_MOTION_DOT":"-0.00007310","SEMIMAJOR_AXIS":"6925.330","FILE":"3881954","MEAN_MOTION":"15.06406140","TLE_LINE1":"1 44914U 20001A   23096.70034659 -.00007310  00000-0 -47222-3 0  9992","PERIOD":"95.592","DECAY_DATE":null,"MEAN_ANOMALY":"261.9652","CENTER_NAME":"EARTH","MEAN_ELEMENT_THEORY":"SGP4","REF_FRAME":"TEME","MEAN_MOTION_DDOT":"0.0000000000000","EPHEMERIS_TYPE":"0","ECCENTRICITY":"0.00019050","TLE_LINE2":"2 44914  53.0550 101.0048 0001905  98.1553 261.9652 15.06406140178871","RCS_SIZE":"LARGE","EPOCH":"2023-04-06T16:48:29.945376","LAUNCH_DATE":"2020-01-07"},{"PERIAPSIS":"545.721","ELEMENT_SET_NO":"999","GP_ID":"229640461","OBJECT_TYPE":"PAYLOAD","TIME_SYSTEM":"UTC","OBJECT_ID":"2020-001B","REV_AT_EPOCH":"17888","SITE":"AFETR","OBJECT_NAME":"STARLINK-1084","RA_OF_ASC_NODE":"100.8745","COUNTRY_CODE":"US","SEMIMAJOR_AXIS":"6925.354","MEAN_MOTION_DOT":"0.00003753","INCLINATION":"53.0533","APOAPSIS":"548.718","ARG_OF_PERICENTER":"81.1993","BSTAR":"0.00027076000000","NORAD_CAT_ID":"44915","CLASSIFICATION_TYPE":"U","DECAY_DATE":null,"PERIOD":"95.592","REF_FRAME":"TEME","CENTER_NAME":"EARTH","MEAN_ANOMALY":"278.9241","MEAN_ELEMENT_THEORY":"SGP4","MEAN_MOTION":"15.06398164","FILE":"3882049","TLE_LINE1":"1 44915U 20001B   23096.72986111  .00003753  00000-0  27076-3 0  9994","EPOCH":"2023-04-06T17:30:59.999904","LAUNCH_DATE":"2020-01-07","TLE_LINE2":"2 44915  53.0533 100.8745 0002164  81.1993 278.9241 15.06398164178881","ECCENTRICITY":"0.00021640","EPHEMERIS_TYPE":"0","MEAN_MOTION_DDOT":"0.0000000000000","RCS_SIZE":"LARGE"},{"OBJECT_ID":"2020-001D","TIME_SYSTEM":"UTC","REV_AT_EPOCH":"17888","PERIAPSIS":"546.115","GP_ID":"229639925","ELEMENT_SET_NO":"999","OBJECT_TYPE":"PAYLOAD","ARG_OF_PERICENTER":"90.6109","BSTAR":"0.00015840000000","CLASSIFICATION_TYPE":"U","NORAD_CAT_ID":"44917","OBJECT_NAME":"STARLINK-1098","SITE":"AFETR","COUNTRY_CODE":"US","RA_OF_ASC_NODE":"100.8636","MEAN_MOTION_DOT":"0.00002079","SEMIMAJOR_AXIS":"6925.346","APOAPSIS":"548.308","INCLINATION":"53.0534","MEAN_MOTION":"15.06400706","FILE":"3882049","TLE_LINE1":"1 44917U 20001D   23096.73353969  .00002079  00000-0  15840-3 0  9992","PERIOD":"95.592","DECAY_DATE":null,"REF_FRAME":"TEME","MEAN_ANOMALY":"269.5061","CENTER_NAME":"EARTH","MEAN_ELEMENT_THEORY":"SGP4","ECCENTRICITY":"0.00015830","TLE_LINE2":"2 44917  53.0534 100.8636 0001583  90.6109 269.5061 15.06400706178883","MEAN_MOTION_DDOT":"0.0000000000000","EPHEMERIS_TYPE":"0","RCS_SIZE":"LARGE","EPOCH":"2023-04-06T17:36:17.829216","LAUNCH_DATE":"2020-01-07"},{"EPOCH":"2023-04-06T17:56:10.287456","LAUNCH_DATE":"2020-01-07","ECCENTRICITY":"0.00012900","TLE_LINE2":"2 44918  53.0548 100.8232 0001290  89.3970 270.7167 15.06390142179623","MEAN_MOTION_DDOT":"0.0000000000000","EPHEMERIS_TYPE":"0","RCS_SIZE":"LARGE","DECAY_DATE":null,"PERIOD":"95.593","REF_FRAME":"TEME","MEAN_ANOMALY":"270.7167","MEAN_ELEMENT_THEORY":"SGP4","CENTER_NAME":"EARTH","MEAN_MOTION":"15.06390142","FILE":"3882049","TLE_LINE1":"1 44918U 20001E   23096.74734129  .00000050  00000-0  22223-4 0  9996","SITE":"AFETR","OBJECT_NAME":"STARLINK-1099","COUNTRY_CODE":"US","RA_OF_ASC_NODE":"100.8232","SEMIMAJOR_AXIS":"6925.379","MEAN_MOTION_DOT":"0.00000050","INCLINATION":"53.0548","APOAPSIS":"548.137","ARG_OF_PERICENTER":"89.3970","BSTAR":"0.00002222300000","CLASSIFICATION_TYPE":"U","NORAD_CAT_ID":"44918","PERIAPSIS":"546.350","ELEMENT_SET_NO":"999","GP_ID":"229639950","OBJECT_TYPE":"PAYLOAD","OBJECT_ID":"2020-001E","TIME_SYSTEM":"UTC","REV_AT_EPOCH":"17962"},{"DECAY_DATE":null,"PERIOD":"94.989","REF_FRAME":"TEME","MEAN_ELEMENT_THEORY":"SGP4","MEAN_ANOMALY":"313.5067","CENTER_NAME":"EARTH","MEAN_MOTION":"15.15968844","FILE":"3882049","TLE_LINE1":"1 44920U 20001G   23096.72659586  .00021160  00000-0  11020-2 0  9996","EPOCH":"2023-04-06T17:26:17.882304","LAUNCH_DATE":"2020-01-07","TLE_LINE2":"2 44920  53.0518  96.3645 0005449  46.6379 313.5067 15.15968844178948","ECCENTRICITY":"0.00054490","MEAN_MOTION_DDOT":"0.0000000000000","EPHEMERIS_TYPE":"0","RCS_SIZE":"LARGE","PERIAPSIS":"514.283","ELEMENT_SET_NO":"999","GP_ID":"229640200","OBJECT_TYPE":"PAYLOAD","OBJECT_ID":"2020-001G","TIME_SYSTEM":"UTC","REV_AT_EPOCH":"17894","OBJECT_NAME":"STARLINK-1102","SITE":"AFETR","COUNTRY_CODE":"US","RA_OF_ASC_NODE":"96.3645","SEMIMAJOR_AXIS":"6896.176","MEAN_MOTION_DOT":"0.00021160","INCLINATION":"53.0518","APOAPSIS":"521.799","ARG_OF_PERICENTER":"46.6379","BSTAR":"0.00110200000000","NORAD_CAT_ID":"44920","CLASSIFICATION_TYPE":"U"},{"BSTAR":"0.00050020000000","CLASSIFICATION_TYPE":"U","NORAD_CAT_ID":"44921","ARG_OF_PERICENTER":"104.6691","MEAN_MOTION_DOT":"0.00007173","SEMIMAJOR_AXIS":"6925.406","APOAPSIS":"548.205","INCLINATION":"53.0531","SITE":"AFETR","OBJECT_NAME":"STARLINK-1103","COUNTRY_CODE":"US","RA_OF_ASC_NODE":"100.9326","REV_AT_EPOCH":"17885","TIME_SYSTEM":"UTC","OBJECT_ID":"2020-001H","GP_ID":"229640950","ELEMENT_SET_NO":"999","OBJECT_TYPE":"PAYLOAD","PERIAPSIS":"546.336","RCS_SIZE":"LARGE","ECCENTRICITY":"0.00013500","TLE_LINE2":"2 44921  53.0531 100.9326 0001350 104.6691 255.4447 15.06381411178856","EPHEMERIS_TYPE":"0","MEAN_MOTION_DDOT":"0.0000000000000","LAUNCH_DATE":"2020-01-07","EPOCH":"2023-04-06T17:08:23.700480","TLE_LINE1":"1 44921U 20001H   23096.71416320  .00007173  00000-0  50020-3 0  9995","MEAN_MOTION":"15.06381411","FILE":"3882049","REF_FRAME":"TEME","MEAN_ANOMALY":"255.4447","CENTER_NAME":"EARTH","MEAN_ELEMENT_THEORY":"SGP4","PERIOD":"95.593","DECAY_DATE":null},{"FILE":"3882049","MEAN_MOTION":"15.06393287","TLE_LINE1":"1 44922U 20001J   23096.74828215  .00006043  00000-0  42430-3 0  9990","DECAY_DATE":null,"PERIOD":"95.593","CENTER_NAME":"EARTH","MEAN_ANOMALY":"284.3215","MEAN_ELEMENT_THEORY":"SGP4","REF_FRAME":"TEME","MEAN_MOTION_DDOT":"0.0000000000000","EPHEMERIS_TYPE":"0","TLE_LINE2":"2 44922  53.0521 100.7895 0001441  75.7934 284.3215 15.06393287178885","ECCENTRICITY":"0.00014410","RCS_SIZE":"LARGE","EPOCH":"2023-04-06T17:57:31.577760","LAUNCH_DATE":"2020-01-07","OBJECT_ID":"2020-001J","TIME_SYSTEM":"UTC","REV_AT_EPOCH":"17888","PERIAPSIS":"546.236","OBJECT_TYPE":"PAYLOAD","ELEMENT_SET_NO":"999","GP_ID":"229639438","ARG_OF_PERICENTER":"75.7934","NORAD_CAT_ID":"44922","CLASSIFICATION_TYPE":"U","BSTAR":"0.00042430000000","RA_OF_ASC_NODE":"100.7895","COUNTRY_CODE":"US","OBJECT_NAME":"STARLINK-1104","SITE":"AFETR","INCLINATION":"53.0521","APOAPSIS":"548.232","SEMIMAJOR_AXIS":"6925.369","MEAN_MOTION_DOT":"0.00006043"},{"ECCENTRICITY":"0.00021980","TLE_LINE2":"2 44923  53.0533 100.6995 0002198 357.4836   2.6143 15.10781193178850","MEAN_MOTION_DDOT":"0.0000000000000","EPHEMERIS_TYPE":"0","RCS_SIZE":"LARGE","EPOCH":"2023-04-06T10:16:20.278272","LAUNCH_DATE":"2020-01-07","MEAN_MOTION":"15.10781193","FILE":"3881771","TLE_LINE1":"1 44923U 20001K   23096.42801248  .00018810  00000-0  11348-2 0  9991","DECAY_DATE":null,"PERIOD":"95.315","REF_FRAME":"TEME","MEAN_ELEMENT_THEORY":"SGP4","MEAN_ANOMALY":"2.6143","CENTER_NAME":"EARTH","ARG_OF_PERICENTER":"357.4836","BSTAR":"0.00113480000000","NORAD_CAT_ID":"44923","CLASSIFICATION_TYPE":"U","OBJECT_NAME":"STARLINK-1106","SITE":"AFETR","COUNTRY_CODE":"US","RA_OF_ASC_NODE":"100.6995","SEMIMAJOR_AXIS":"6911.953","MEAN_MOTION_DOT":"0.00018810","INCLINATION":"53.0533","APOAPSIS":"535.338","TIME_SYSTEM":"UTC","OBJECT_ID":"2020-001K","REV_AT_EPOCH":"17885","PERIAPSIS":"532.299","ELEMENT_SET_NO":"999","GP_ID":"229607607","OBJECT_TYPE":"PAYLOAD"},{"REV_AT_EPOCH":"17884","OBJECT_ID":"2020-001L","TIME_SYSTEM":"UTC","OBJECT_TYPE":"PAYLOAD","GP_ID":"229608358","ELEMENT_SET_NO":"999","PERIAPSIS":"546.263","CLASSIFICATION_TYPE":"U","NORAD_CAT_ID":"44924","BSTAR":"0.00005506000000","ARG_OF_PERICENTER":"98.2099","APOAPSIS":"548.238","INCLINATION":"53.0532","MEAN_MOTION_DOT":"0.00000539","SEMIMAJOR_AXIS":"6925.385","COUNTRY_CODE":"US","RA_OF_ASC_NODE":"101.9368","OBJECT_NAME":"STARLINK-1111","SITE":"AFETR","TLE_LINE1":"1 44924U 20001L   23096.49764670  .00000539  00000-0  55060-4 0  9996","FILE":"3881771","MEAN_MOTION":"15.06388041","MEAN_ELEMENT_THEORY":"SGP4","MEAN_ANOMALY":"261.9051","CENTER_NAME":"EARTH","REF_FRAME":"TEME","PERIOD":"95.593","DECAY_DATE":null,"RCS_SIZE":"LARGE","MEAN_MOTION_DDOT":"0.0000000000000","EPHEMERIS_TYPE":"0","ECCENTRICITY":"0.00014260","TLE_LINE2":"2 44924  53.0532 101.9368 0001426  98.2099 261.9051 15.06388041178849","LAUNCH_DATE":"2020-01-07","EPOCH":"2023-04-06T11:56:36.674880"}];
